{
  "type": "FeatureCollection",
  "features": [
    {
      "type": "Feature",
      "geometry": {
        "type": "Point",
        "coordinates": [
          38.2047592,
          44.4220236
        ]
      },
      "properties": {
        "source": "gdelt_ground",
        "kind": "ground_news",
        "article_date": "2026-10-07",
        "event_date": "2026-10-07",
        "ingested_at": "2026-10-07T11:45:54Z",
        "place": "Putin",
        "location_confidence": "title_chunk",
        "candidate_score": 25,
        "country_code": "ru",
        "front_dist_km": null,
        "title": "Putin  plotting huge attack on 3 nuclear plant as terrifying Ukraine plan leaked",
        "text": "Putin  plotting huge attack on 3 nuclear plant as terrifying Ukraine plan leaked.",
        "source_url": "https://www.mirror.co.uk/news/world-news/russia-ukraine-nuclear-plants-putin-37726246",
        "publisher_hint": "https://www.mirror.co.uk/news/world-news/russia-ukraine-nuclear-plants-putin-37726246"
      }
    },
    {
      "type": "Feature",
      "geometry": {
        "type": "Point",
        "coordinates": [
          38.2047592,
          44.4220236
        ]
      },
      "properties": {
        "source": "gdelt_ground",
        "kind": "ground_news",
        "article_date": "2026-10-07",
        "event_date": "2026-10-07",
        "ingested_at": "2026-10-07T11:45:54Z",
        "place": "Putin",
        "location_confidence": "title_chunk",
        "candidate_score": 25,
        "country_code": "ru",
        "front_dist_km": null,
        "title": "Putin warns Russia will use  all weapon if any of its territory is attacked",
        "text": "Putin warns Russia will use  all weapon if any of its territory is attacked.",
        "source_url": "https://www.koat.com/article/putin-nato-kaliningrad-nuclear-warning/73989919",
        "publisher_hint": "https://www.koat.com/article/putin-nato-kaliningrad-nuclear-warning/73989919"
      }
    },
    {
      "type": "Feature",
      "geometry": {
        "type": "Point",
        "coordinates": [
          38.2047592,
          44.4220236
        ]
      },
      "properties": {
        "source": "gdelt_ground",
        "kind": "ground_news",
        "article_date": "2026-10-07",
        "event_date": "2026-10-07",
        "ingested_at": "2026-10-07T11:45:54Z",
        "place": "Putin",
        "location_confidence": "title_chunk",
        "candidate_score": 25,
        "country_code": "ru",
        "front_dist_km": null,
        "title": "Putin  plotting huge attack on 3 nuclear plant as terrifying Ukraine plan leaked",
        "text": "Putin  plotting huge attack on 3 nuclear plant as terrifying Ukraine plan leaked.",
        "source_url": "https://www.aol.co.uk/articles/putin-plotting-huge-attack-3-081542000.html",
        "publisher_hint": "https://www.aol.co.uk/articles/putin-plotting-huge-attack-3-081542000.html"
      }
    }
  ]
}