{
  "type": "FeatureCollection",
  "features": [
    {
      "type": "Feature",
      "geometry": {
        "type": "Point",
        "coordinates": [
          54.5643516,
          32.6475314
        ]
      },
      "properties": {
        "source": "ISW",
        "date": "2026-07-20",
        "title": "ISW UAV/missile",
        "place": "Iran",
        "snippet": "Russian Security Council Deputy Chairperson Dmitry Medvedev directly criticized US President Donald Trump for striking Iran, claiming on his English and Russian language social media channels that the &#8220;peacekeeper&#8221; has &#8220;shown his true colors.&#8221;[3] Russian State Duma Internatio",
        "url": "https://understandingwar.org/research/russia-ukraine/russian-offensive-campaign-assessment-updates-2/"
      }
    },
    {
      "type": "Feature",
      "geometry": {
        "type": "Point",
        "coordinates": [
          31.2718321,
          49.4871968
        ]
      },
      "properties": {
        "source": "ISW",
        "date": "2026-07-20",
        "title": "ISW UAV/missile",
        "place": "Ukraine",
        "snippet": "Russia issued similar condemnations of the June 2025 war and was unable to provide Iran with more support in defending against Israeli and later US strikes.[6] Russia&#8217;s war in Ukraine is constraining Russia\u2019s ability to provide military support to Iran, also highlighting how Russia has become ",
        "url": "https://understandingwar.org/research/russia-ukraine/russian-offensive-campaign-assessment-updates-2/"
      }
    },
    {
      "type": "Feature",
      "geometry": {
        "type": "Point",
        "coordinates": [
          37.7809825,
          47.9212914
        ]
      },
      "properties": {
        "source": "ISW",
        "date": "2026-07-20",
        "title": "ISW UAV/missile",
        "place": "Donetsk",
        "snippet": "read the full Feb 28 report Russian Offensive Campaign Assessment, February 27, 2026 Toplines Russian forces have likely begun artillery and drone preparation of the battlefield for the anticipated Russian Spring-Summer 2026 offensive against Ukraine\u2019s Fortress Belt in Donetsk Oblast",
        "url": "https://understandingwar.org/research/russia-ukraine/russian-offensive-campaign-assessment-updates-2/"
      }
    },
    {
      "type": "Feature",
      "geometry": {
        "type": "Point",
        "coordinates": [
          37.7809825,
          47.9212914
        ]
      },
      "properties": {
        "source": "ISW",
        "date": "2026-07-20",
        "title": "ISW UAV/missile",
        "place": "Donetsk",
        "snippet": "Russian forces shelled Bilenke (roughly 14 kilometers from the frontline and immediately northeast of Kramatorsk, the northern tip of the Fortress Belt \u2014 a series of fortified cities that have constituted the backbone of Ukrainian defenses in Donetsk Oblast since 2014) on February 26 and 27 \u2014 the fi",
        "url": "https://understandingwar.org/research/russia-ukraine/russian-offensive-campaign-assessment-updates-2/"
      }
    },
    {
      "type": "Feature",
      "geometry": {
        "type": "Point",
        "coordinates": [
          37.6044657,
          48.5785754
        ]
      },
      "properties": {
        "source": "ISW",
        "date": "2026-07-20",
        "title": "ISW UAV/missile",
        "place": "Oleksiievo-Druzhkivka",
        "snippet": "BAI is the use of air power to strike targets in the frontline\u2019s operational rear (roughly 20 to 100 kilometers from the line of contact) to impact tactical battlefield operations, and Russia has largely been waging its BAI campaign with drone strikes.[2] Geolocated footage published on February 26 ",
        "url": "https://understandingwar.org/research/russia-ukraine/russian-offensive-campaign-assessment-updates-2/"
      }
    },
    {
      "type": "Feature",
      "geometry": {
        "type": "Point",
        "coordinates": [
          17.3094202,
          49.3597062
        ]
      },
      "properties": {
        "source": "ISW",
        "date": "2026-07-20",
        "title": "ISW UAV/missile",
        "place": "March",
        "snippet": "Russian law enforcement agencies announced on February 27 that Russian authorities detained Russian news outlet Readovka founder and former editor-in-chief Alexey Kostylev under suspicion of \u201clarge-scale fraud.\u201d[13] A spokesperson for the investigation told TASS that Russian authorities suspect Kost",
        "url": "https://understandingwar.org/research/russia-ukraine/russian-offensive-campaign-assessment-updates-2/"
      }
    },
    {
      "type": "Feature",
      "geometry": {
        "type": "Point",
        "coordinates": [
          -122.1897443,
          47.6219191
        ]
      },
      "properties": {
        "source": "ISW",
        "date": "2026-07-20",
        "title": "ISW UAV/missile",
        "place": "Swedish",
        "snippet": "The Swedish Armed Forces reported on February 27 that the Russian signals intelligence (SIGINT) ship Zhigulevsk launched a drone illegally while in Swedish territorial waters in the Oresund Strait during the visit of the Charles de Gaulle to Malmo.[21] The Swedish Armed Forces added that a nearby Sw",
        "url": "https://understandingwar.org/research/russia-ukraine/russian-offensive-campaign-assessment-updates-2/"
      }
    },
    {
      "type": "Feature",
      "geometry": {
        "type": "Point",
        "coordinates": [
          31.2718321,
          49.4871968
        ]
      },
      "properties": {
        "source": "ISW",
        "date": "2026-07-20",
        "title": "ISW UAV/missile",
        "place": "Ukraine",
        "snippet": "Protocol III of the Convention on Conventional Weapons prohibits the use of incendiary weapons, such as white phosphorus, against civilian targets or in areas with concentrations of civilians.[30] Russian forces notably have used white phosphorous and incendiary munitions allegedly in violation of i",
        "url": "https://understandingwar.org/research/russia-ukraine/russian-offensive-campaign-assessment-updates-2/"
      }
    },
    {
      "type": "Feature",
      "geometry": {
        "type": "Point",
        "coordinates": [
          -82.4995913,
          36.333438
        ]
      },
      "properties": {
        "source": "ISW",
        "date": "2026-07-20",
        "title": "ISW UAV/missile",
        "place": "February",
        "snippet": "The Ukrainian Air Force reported that Russian forces launched 420 drones and 39 missiles against Ukraine overnight \u2013 the fourth Russian strike of over 400 projectiles in February 2026.[1] The Ukrainian Air Force reported that Russian forces launched 11 Iskander-M ballistic missiles/S-300 surface-to-",
        "url": "https://understandingwar.org/research/russia-ukraine/russian-offensive-campaign-assessment-updates-2/"
      }
    },
    {
      "type": "Feature",
      "geometry": {
        "type": "Point",
        "coordinates": [
          33.7498787,
          49.8607809
        ]
      },
      "properties": {
        "source": "ISW",
        "date": "2026-07-20",
        "title": "ISW UAV/missile",
        "place": "Poltava",
        "snippet": "Ukrainian President Volodymyr Zelensky reported that Russian forces struck gas infrastructure in Poltava Oblast, electrical substations in Kyiv and Dnipropetrovsk oblasts, and caused additional damage in Chernihiv, Zaporizhia, Kharkiv, Kirovohrad, and Kyiv oblasts and Kyiv City.[2] Ukraine\u2019s largest",
        "url": "https://understandingwar.org/research/russia-ukraine/russian-offensive-campaign-assessment-updates-2/"
      }
    },
    {
      "type": "Feature",
      "geometry": {
        "type": "Point",
        "coordinates": [
          34.9501715,
          48.662589
        ]
      },
      "properties": {
        "source": "ISW",
        "date": "2026-07-20",
        "title": "ISW UAV/missile",
        "place": "Dnipropetrovsk",
        "snippet": "Ukrainian First Deputy Minister of Energy Artem Nekrasov reported that Russian overnight strikes left consumers in Dnipropetrovsk, Odesa, Donetsk, Zaporizhia, Poltava, and Kharkiv oblasts without electricity.[4] The appearance of ballistic, cruise, and anti-ship missiles in the February 25-26 strike",
        "url": "https://understandingwar.org/research/russia-ukraine/russian-offensive-campaign-assessment-updates-2/"
      }
    },
    {
      "type": "Feature",
      "geometry": {
        "type": "Point",
        "coordinates": [
          -82.4995913,
          36.333438
        ]
      },
      "properties": {
        "source": "ISW",
        "date": "2026-07-20",
        "title": "ISW UAV/missile",
        "place": "February",
        "snippet": "Russia has launched strike packages with 25 or more missiles five additional times in February 2026, most recently on February 22",
        "url": "https://understandingwar.org/research/russia-ukraine/russian-offensive-campaign-assessment-updates-2/"
      }
    },
    {
      "type": "Feature",
      "geometry": {
        "type": "Point",
        "coordinates": [
          6.1466014,
          46.2017559
        ]
      },
      "properties": {
        "source": "ISW",
        "date": "2026-07-20",
        "title": "ISW UAV/missile",
        "place": "Geneva",
        "snippet": "Russian forces often launch no or few missiles for multiple days in a row before launching strike packages with a significantly higher quantity of missiles, likely stockpiling missiles between strike series to maximize damage by launching several missiles alongside a large quantity of drones to over",
        "url": "https://understandingwar.org/research/russia-ukraine/russian-offensive-campaign-assessment-updates-2/"
      }
    },
    {
      "type": "Feature",
      "geometry": {
        "type": "Point",
        "coordinates": [
          6.1466014,
          46.2017559
        ]
      },
      "properties": {
        "source": "ISW",
        "date": "2026-07-20",
        "title": "ISW UAV/missile",
        "place": "Geneva",
        "snippet": "Ukrainian President Volodymyr Zelensky and US President Donald Trump spoke by phone on February 25 to discuss ongoing negotiations and preparation for upcoming bilateral and trilateral talks.[9] US and Ukrainian delegations also met in Geneva, Switzerland, on February 26, led by US Special Envoy to ",
        "url": "https://understandingwar.org/research/russia-ukraine/russian-offensive-campaign-assessment-updates-2/"
      }
    },
    {
      "type": "Feature",
      "geometry": {
        "type": "Point",
        "coordinates": [
          129.1540617,
          61.48327
        ]
      },
      "properties": {
        "source": "ISW",
        "date": "2026-07-20",
        "title": "ISW UAV/missile",
        "place": "Pokrovsk",
        "snippet": "Ukrainian 3rd Army Corps Commander Brigadier General Andriy Biletsky told the Independent on February 26 that Starlink outages have cut the effectiveness of Russia&#8217;s drone campaign by roughly 20 to 40 percent in the last two weeks.[12] The Independent noted that Ukrainian forces in the 3rd Arm",
        "url": "https://understandingwar.org/research/russia-ukraine/russian-offensive-campaign-assessment-updates-2/"
      }
    },
    {
      "type": "Feature",
      "geometry": {
        "type": "Point",
        "coordinates": [
          31.2718321,
          49.4871968
        ]
      },
      "properties": {
        "source": "ISW",
        "date": "2026-07-20",
        "title": "ISW UAV/missile",
        "place": "Ukraine",
        "snippet": "Russian forces had been using Starlink terminals both for frontline communication and to extend drone ranges to strike further into the Ukrainian rear and generate battlefield air interdiction (BAI) effects.[14] ISW has observed evidence over the last several weeks that the Starlink block has preven",
        "url": "https://understandingwar.org/research/russia-ukraine/russian-offensive-campaign-assessment-updates-2/"
      }
    },
    {
      "type": "Feature",
      "geometry": {
        "type": "Point",
        "coordinates": [
          45.18383,
          54.18671
        ]
      },
      "properties": {
        "source": "ISW",
        "date": "2026-07-20",
        "title": "ISW UAV/missile",
        "place": "Saransk",
        "snippet": "Industry sources told Russian business newspaper Vedomosti on February 26 that Russia\u2019s sole domestic optic fiber producer, the Optic Fiber Systems plant in Saransk, Republic of Mordovia, has been offline since Ukrainian drones struck the plant in May 2025.[18] The plant reportedly produced roughly ",
        "url": "https://understandingwar.org/research/russia-ukraine/russian-offensive-campaign-assessment-updates-2/"
      }
    },
    {
      "type": "Feature",
      "geometry": {
        "type": "Point",
        "coordinates": [
          36.2310146,
          49.9923181
        ]
      },
      "properties": {
        "source": "ISW",
        "date": "2026-07-20",
        "title": "ISW UAV/missile",
        "place": "Kharkiv",
        "snippet": "Such increases in fiber-optic FPV range will also allow Russian forces to harass civilian populations in Kharkiv City, similarly to how Russian forces have been using tactical drones to make life near the frontline untenable for civilians.[25] Russia is reportedly deploying elements of at least one ",
        "url": "https://understandingwar.org/research/russia-ukraine/russian-offensive-campaign-assessment-updates-2/"
      }
    },
    {
      "type": "Feature",
      "geometry": {
        "type": "Point",
        "coordinates": [
          -91.011418,
          45.8214101
        ]
      },
      "properties": {
        "source": "ISW",
        "date": "2026-07-20",
        "title": "ISW UAV/missile",
        "place": "Winter",
        "snippet": "Russian forces continued to fight to seize most of Myrnohrad (just east of Pokrovsk) for another month after that, with the Russian Ministry of Defense (MoD) claiming on December 28 that Russian forces seized the town.[3] The Russian MoD claimed that Russian forces fully seized Pokrovsk in early Dec",
        "url": "https://understandingwar.org/research/russia-ukraine/russian-offensive-campaign-assessment-updates-2/"
      }
    },
    {
      "type": "Feature",
      "geometry": {
        "type": "Point",
        "coordinates": [
          -89.7314472,
          45.4710329
        ]
      },
      "properties": {
        "source": "ISW",
        "date": "2026-07-20",
        "title": "ISW UAV/missile",
        "place": "Tomahawk",
        "snippet": "The source gave an example of what this Russian stall tactic has achieved, noting that Ukraine will not obtain Tomahawk missiles from the United States as long as Russia remains at the negotiating table",
        "url": "https://understandingwar.org/research/russia-ukraine/russian-offensive-campaign-assessment-updates-2/"
      }
    }
  ]
}