{
  "type": "FeatureCollection",
  "features": [
    {
      "type": "Feature",
      "geometry": {
        "type": "Point",
        "coordinates": [
          34.8027723,
          50.9119775
        ]
      },
      "properties": {
        "source": "ISW",
        "date": "2026-02-22",
        "title": "ISW ground operation (front-near)",
        "place": "Sumy",
        "distance_to_front_km": 22.6,
        "snippet": "[14] Girkin claimed the peace agreement is disadvantageous to Russia as it would force Russia to formally renunciate its claims over illegally-annexed parts of Ukraine; surrender &#8220;strategically vital&#8221; offensive positions in Sumy, Kharkiv, and Dnipropetrovsk oblasts; grant Ukrainian forces time to rest and reconstitute; sharply decrease ",
        "url": "https://understandingwar.org/research/russia-ukraine/russian-offensive-campaign-assessment-updates/"
      }
    },
    {
      "type": "Feature",
      "geometry": {
        "type": "Point",
        "coordinates": [
          37.30811,
          48.40181
        ]
      },
      "properties": {
        "source": "ISW",
        "date": "2026-02-22",
        "title": "ISW ground operation (front-near)",
        "place": "Boikivka",
        "distance_to_front_km": 3.0,
        "snippet": "Geolocated footage published on November 29 and 30 shows Ukrainian forces striking Russian bridge-laying vehicles and armored fighting vehicles (AFVs) east of Boikivka, south of Pankivka, and west of Novotoretske (all southeast of Dobropillya) as the vehicles attempted to cross the Kazennyi Torets River.[30] The deputy commander of a Ukrainian batt",
        "url": "https://understandingwar.org/research/russia-ukraine/russian-offensive-campaign-assessment-updates/"
      }
    },
    {
      "type": "Feature",
      "geometry": {
        "type": "Point",
        "coordinates": [
          37.22614,
          48.24869
        ]
      },
      "properties": {
        "source": "ISW",
        "date": "2026-02-22",
        "title": "ISW ground operation (front-near)",
        "place": "Novopavlivka",
        "distance_to_front_km": 1.0,
        "snippet": "Ukrainian forces recently advanced near Novopavlivka",
        "url": "https://understandingwar.org/research/russia-ukraine/russian-offensive-campaign-assessment-updates/"
      }
    },
    {
      "type": "Feature",
      "geometry": {
        "type": "Point",
        "coordinates": [
          38.0902435,
          48.8676267
        ]
      },
      "properties": {
        "source": "ISW",
        "date": "2026-02-22",
        "title": "ISW ground operation (front-near)",
        "place": "Siversk",
        "distance_to_front_km": 1.6,
        "snippet": "Putin then made a series of exaggerated claims about purported Russian battlefield gains, including that Russian forces have completed the seizure of Kupyansk; captured about 70 percent of Pokrovsk and completely encircled both Pokrovsk and Myrnohrad; seized just over 21 percent of all buildings in Siversk; seized most of Vovchansk; and advanced wi",
        "url": "https://understandingwar.org/research/russia-ukraine/russian-offensive-campaign-assessment-updates/"
      }
    },
    {
      "type": "Feature",
      "geometry": {
        "type": "Point",
        "coordinates": [
          37.6141992,
          49.7132963
        ]
      },
      "properties": {
        "source": "ISW",
        "date": "2026-02-22",
        "title": "ISW ground operation (front-near)",
        "place": "Kupyansk",
        "distance_to_front_km": 1.9,
        "snippet": "Putin praised the claimed seizure of Kupyansk as the model by which Russian forces will make advances elsewhere on the frontline.[8] Russian forces have been using a new campaign design that utilizes battlefield air interdiction (BAI) efforts to degrade Ukrainian logistics and defenses such that Russian infantry can infiltrate into Ukrainian rear a",
        "url": "https://understandingwar.org/research/russia-ukraine/russian-offensive-campaign-assessment-updates/"
      }
    },
    {
      "type": "Feature",
      "geometry": {
        "type": "Point",
        "coordinates": [
          37.7809825,
          47.9212914
        ]
      },
      "properties": {
        "source": "ISW",
        "date": "2026-02-22",
        "title": "ISW ground operation (front-near)",
        "place": "Donetsk",
        "distance_to_front_km": 50.5,
        "snippet": "Putin&#8217;s statement is not a compromise aimed at advancing the peace deal but is a repetition of his June 2024 demand that Ukraine cede territories that Russia does not occupy and has struggled and failed to seize since 2014 and 2022.[27] Such a concession would force Ukraine to abandon its Fortress Belt, the fortified defensive line in Donetsk",
        "url": "https://understandingwar.org/research/russia-ukraine/russian-offensive-campaign-assessment-updates/"
      }
    },
    {
      "type": "Feature",
      "geometry": {
        "type": "Point",
        "coordinates": [
          37.20906,
          48.26199
        ]
      },
      "properties": {
        "source": "ISW",
        "date": "2026-02-22",
        "title": "ISW ground operation (front-near)",
        "place": "Hnativka",
        "distance_to_front_km": 1.4,
        "snippet": "[35] The Donetsk Oblast Prosecutor\u2019s Office reported on November 28 that Russian forces executed a Ukrainian POW in Hnativka (immediately southeast of Pokrovsk) on an unspecified date in November 2025.[36] ISW observed an increase in Russian war crimes in the Hulyaipole and Pokrovsk directions in late October and November 2025, as Russian forces ha",
        "url": "https://understandingwar.org/research/russia-ukraine/russian-offensive-campaign-assessment-updates/"
      }
    },
    {
      "type": "Feature",
      "geometry": {
        "type": "Point",
        "coordinates": [
          37.7809825,
          47.9212914
        ]
      },
      "properties": {
        "source": "ISW",
        "date": "2026-02-22",
        "title": "ISW ground operation (front-near)",
        "place": "Donetsk",
        "distance_to_front_km": 50.5,
        "snippet": "Russian President Vladimir Putin and Russian military commanders have been attempting to portray Russia as capable of rapidly seizing Donetsk Oblast militarily, but hard data on the rate of Russian advance in Donetsk Oblast does not indicate that Russian forces will imminently seize the rest of the oblast.[2] Russian forces have been prioritizing c",
        "url": "https://understandingwar.org/research/russia-ukraine/russian-offensive-campaign-assessment-updates/"
      }
    }
  ],
  "properties": {
    "filter": {
      "allowed_country_codes": [
        "ru",
        "ua"
      ],
      "front_near_km": 80.0
    },
    "stats": {
      "kept": 8,
      "dropped_far": 37,
      "dropped_geocode_or_country": 15
    }
  }
}