{
  "type": "FeatureCollection",
  "features": [
    {
      "type": "Feature",
      "geometry": {
        "type": "Point",
        "coordinates": [
          34.8027723,
          50.9119775
        ]
      },
      "properties": {
        "source": "isw_ground",
        "kind": "ground",
        "article_date": "2026-09-30",
        "event_date": "2026-09-30",
        "ingested_at": "2026-10-01T11:08:25Z",
        "place": "Sumy City",
        "country_code": "ua",
        "front_dist_km": null,
        "text": "Ukrainian forces recently advanced north of Sumy City.",
        "source_url": "https://understandingwar.org/research/russia-ukraine/russian-offensive-campaign-assessment-september-30-2026/"
      }
    },
    {
      "type": "Feature",
      "geometry": {
        "type": "Point",
        "coordinates": [
          34.895386,
          51.091225
        ]
      },
      "properties": {
        "source": "isw_ground",
        "kind": "ground",
        "article_date": "2026-09-30",
        "event_date": "2026-09-30",
        "ingested_at": "2026-10-01T11:08:25Z",
        "place": "Korchakivka",
        "country_code": "ua",
        "front_dist_km": null,
        "text": "Ukrainian forces recently advanced north of Korchakivka (north of Sumy City) based on geolocated footage published on September 29.[17] Russian sources continue to make unconfirmed claims of advance in northern Sumy Oblast.",
        "source_url": "https://understandingwar.org/research/russia-ukraine/russian-offensive-campaign-assessment-september-30-2026/"
      }
    },
    {
      "type": "Feature",
      "geometry": {
        "type": "Point",
        "coordinates": [
          38.516096,
          48.5651752
        ]
      },
      "properties": {
        "source": "isw_ground",
        "kind": "ground",
        "article_date": "2026-09-29",
        "event_date": "2026-09-29",
        "ingested_at": "2026-10-01T11:08:25Z",
        "place": "Kalynove",
        "country_code": "ua",
        "front_dist_km": null,
        "text": "Ukrainian forces recently cleared Russian positions north of Kalynove (northwest of Kupyansk), according to geolocated footage published on September 28, indicating that Ukrainian forces advanced in the area.[43] The footage was accompanied by a Ukrainian regiment’s statements asserting that Ukrainian forces had cleared the entire forested area northwest of Kalynove.",
        "source_url": "https://understandingwar.org/research/russia-ukraine/russian-offensive-campaign-assessment-september-29-2026/"
      }
    },
    {
      "type": "Feature",
      "geometry": {
        "type": "Point",
        "coordinates": [
          35.1338908,
          47.8326667
        ]
      },
      "properties": {
        "source": "isw_ground",
        "kind": "ground",
        "article_date": "2026-09-28",
        "event_date": "2026-09-28",
        "ingested_at": "2026-10-01T11:08:26Z",
        "place": "western Zaporizhia Oblast",
        "country_code": "ua",
        "front_dist_km": null,
        "text": "Ukrainian forces recently advanced in western Zaporizhia Oblast.",
        "source_url": "https://understandingwar.org/research/russia-ukraine/russian-offensive-campaign-assessment-september-28-2026/"
      }
    },
    {
      "type": "Feature",
      "geometry": {
        "type": "Point",
        "coordinates": [
          35.896801,
          47.532688
        ]
      },
      "properties": {
        "source": "isw_ground",
        "kind": "ground",
        "article_date": "2026-09-28",
        "event_date": "2026-09-28",
        "ingested_at": "2026-10-01T11:08:26Z",
        "place": "Mala Tokmachka",
        "country_code": "ua",
        "front_dist_km": null,
        "text": "Russian forces struck a Ukrainian position south of Mala Tokmachka, according to geolocated footage published on September 27, indicating that Ukrainian forces recently advanced in the area.[56] Ukrainian forces continued their frontline strikes against Russian military assets in occupied Zaporizhia Oblast.",
        "source_url": "https://understandingwar.org/research/russia-ukraine/russian-offensive-campaign-assessment-september-28-2026/"
      }
    },
    {
      "type": "Feature",
      "geometry": {
        "type": "Point",
        "coordinates": [
          38.5372813,
          48.6252414
        ]
      },
      "properties": {
        "source": "isw_ground",
        "kind": "ground",
        "article_date": "2026-09-27",
        "event_date": "2026-09-27",
        "ingested_at": "2026-10-01T11:08:26Z",
        "place": "Oleksandrivka",
        "country_code": "ua",
        "front_dist_km": null,
        "text": "[52] Ukrainian forces recently advanced east of Oleksandrivka.",
        "source_url": "https://understandingwar.org/research/russia-ukraine/russian-offensive-campaign-assessment-september-27-2026/"
      }
    }
  ]
}