{
  "type": "FeatureCollection",
  "features": [
    {
      "type": "Feature",
      "geometry": {
        "type": "Point",
        "coordinates": [
          34.8027723,
          50.9119775
        ]
      },
      "properties": {
        "source": "isw_ground",
        "kind": "ground",
        "article_date": "2026-09-30",
        "event_date": "2026-09-30",
        "ingested_at": "2026-10-04T10:43:13Z",
        "place": "Sumy City",
        "country_code": "ua",
        "front_dist_km": null,
        "text": "Ukrainian forces recently advanced north of Sumy City.",
        "source_url": "https://understandingwar.org/research/russia-ukraine/russian-offensive-campaign-assessment-september-30-2026/"
      }
    },
    {
      "type": "Feature",
      "geometry": {
        "type": "Point",
        "coordinates": [
          34.895386,
          51.091225
        ]
      },
      "properties": {
        "source": "isw_ground",
        "kind": "ground",
        "article_date": "2026-09-30",
        "event_date": "2026-09-30",
        "ingested_at": "2026-10-04T10:43:13Z",
        "place": "Korchakivka",
        "country_code": "ua",
        "front_dist_km": null,
        "text": "Ukrainian forces recently advanced north of Korchakivka (north of Sumy City) based on geolocated footage published on September 29.[17] Russian sources continue to make unconfirmed claims of advance in northern Sumy Oblast.",
        "source_url": "https://understandingwar.org/research/russia-ukraine/russian-offensive-campaign-assessment-september-30-2026/"
      }
    }
  ]
}