{
  "type": "FeatureCollection",
  "features": [
    {
      "type": "Feature",
      "geometry": {
        "type": "Point",
        "coordinates": [
          24.0194315,
          49.8347667
        ]
      },
      "properties": {
        "id": "ukrainenow|головні новини за 27 вересня  україна почне масово застосувати дрониперехоплювачі протягом кількох місяців  зсу дро|головні новини за 27 вересня  україна почне масово застосувати дрониперехоплювачі протягом кількох місяців  зсу дронами доставили продукти мешканцям окупованих олешок на херсонщині",
        "source": "ukrainenow",
        "channel": "UkraineNow",
        "kind": "telegram",
        "title": "Головні новини за 27 вересня ▪️ Україна почне масово застосувати дрони-перехоплювачі протягом кількох місяців ▪️ ЗСУ дро",
        "url": "https://t.me/UkraineNow/84351",
        "published_at": "2026-09-27T19:28:46+00:00",
        "event_type": "drone_attack",
        "confidence": "medium",
        "sector_hints": [
          "kherson"
        ],
        "place_candidates": [
          "Telegram",
          "Viber",
          "Головні",
          "Олешок",
          "Херсонщині"
        ],
        "matched_place": "Головні",
        "display_name": "Ательє „Головні убори“, 6, вулиця Степана Бандери, Цитадель, Середмістя, Галицький район, Львів, Львівська міська громада, Львівський район, Львівська область, 79013, Україна",
        "tags": [
          "удар",
          "дрон"
        ],
        "text": "Головні новини за 27 вересня ▪️ Україна почне масово застосувати дрони-перехоплювачі протягом кількох місяців ▪️ ЗСУ дронами доставили продукти мешканцям окупованих Олешок на Херсонщині - за ніч скинуто допомогу одразу у 100 точках міста ▪️ росіяни весь день атакують Київ реактивними дронами, під ударом дитячі садочки, школи, житлові будинки, СТО, складські приміщення, об’єкти зв’язку, ринок. Є загиблі та поранені ✅ Ми у Telegram | Viber"
      }
    },
    {
      "type": "Feature",
      "geometry": {
        "type": "Point",
        "coordinates": [
          30.4727063,
          50.4550595
        ]
      },
      "properties": {
        "id": "generalstaffzsu|оперативна інформація станом на 2200 27092026 щодо російського вторгнення загалом від початку цієї доби відбулося 197|оперативна інформація станом на 2200 27092026 щодо російського вторгнення загалом від початку цієї доби відбулося 197 бойових зіткнень противник завдав 64 авіаційних удари скинув 1",
        "source": "generalstaffzsu",
        "channel": "GeneralStaffZSU",
        "kind": "telegram",
        "title": "Оперативна інформація станом на 22:00 27.09.2026 щодо російського вторгнення Загалом від початку цієї доби відбулося 197",
        "url": "https://t.me/GeneralStaffZSU/42390",
        "published_at": "2026-09-27T19:00:06+00:00",
        "event_type": "drone_attack",
        "confidence": "high",
        "sector_hints": [
          "lyman",
          "pokrovsk",
          "orikhiv"
        ],
        "place_candidates": [
          "Telegram-",
          "Оперативна",
          "Загалом",
          "Противник",
          "Крім",
          "Упродовж",
          "Південно-",
          "Слобожанському",
          "Стариці",
          "Козачої Лопані",
          "Волохівського",
          "Приколотного",
          "Куп’янському",
          "Сили",
          "Ківшарівки",
          "Колісниківки",
          "Лиманському",
          "Зарічного",
          "Лимана",
          "Діброви"
        ],
        "matched_place": "Оперативна",
        "display_name": "Оперативна поліграфія, вулиця Богдана Гаврилишина, Лукʼянівка, Шевченківський район, Київ, 03055, Україна",
        "tags": [
          "покровськ",
          "оперативна інформація",
          "боєзіткнення",
          "обстріл",
          "удар",
          "дрон"
        ],
        "text": "Оперативна інформація станом на 22:00 27.09.2026 щодо російського вторгнення Загалом від початку цієї доби відбулося 197 бойових зіткнень. Противник завдав 64 авіаційних удари, скинув 196 керованих авіабомб. Крім того, залучив для ураження 5565 дронів-камікадзе та здійснив 2132 обстріли населених пунктів і позицій наших військ. Упродовж доби на Південно-Слобожанському напрямку противник п'ять разів штурмував позиції наших підрозділів біля Стариці, Козачої Лопані, Волохівського та Приколотного; ще два боєзіткнення тривають дотепер. На Куп’янському напрямку Сили оборони відбили два штурми противника в районах Ківшарівки та Колісниківки. На Лиманському напрямку наші оборонці успішно відбили п'ять спроб загарбників просунутися в районах Зарічного, Лимана та Діброви; ще одне боєзіткнення триває. На Слов’янському напрямку Сили оборони зупинили три спроби загарбників іти вперед поблизу Миколаївки. На Костянтинівському напрямку Сили оборони відбили 20 ворожих штурмів у районах Костянтинівки, Новоселівки, Іллінівки, Довгої Балки та Русиного Яру; ще одне боєзіткнення триває. Усього 15 атак відбито на Покровському напрямку. Окупанти намагалися просунутися в районах населених пунктів Вільне, Білицьке, Чернігівка, Мирне, Сергіївка та Молодецьке. Три боєзіткнення тривають до цього часу. За попередніми підрахунками, сьогодні тут ліквідовано 33 окупанти та 6 — поранено; знищено дві одиниці автомобільної, 10 одиниць спеціальної техніки, два пункти управління безпілотними літальними апаратами та один склад боєприпасів ворога. Пошкоджено чотири одиниці автомобільної техніки, п'ять пунктів управління безпілотними літальними апаратами та 52 укриття противника. Знищено або подавлено 204 безпілотні літальні апарати різних типів. Чотири атаки окупантів відбили наші захисники на Олександрівському напрямку в районах Січневого та Вербового. Одинадцять атак окупантів зафіксовано на Гуляйпільському напрямку в районах населених пунктів Різдвянка, Копані, Єгорівка та Мирне. На Північно-Слобожанському, Курському, Краматорському, Оріхівському та Придніпровському напрямках ворог наступальних дій не проводив. На інших напрямках суттєвих змін в обстановці не відбулося. Биймо ворога та наближаймо нашу Перемогу! Слава Україні! Підписатися на офіційний Telegram-канал Генерального штабу ЗСУ 🇺🇦 Сайт Збройних Сил України"
      }
    },
    {
      "type": "Feature",
      "geometry": {
        "type": "Point",
        "coordinates": [
          26.2147499,
          50.4010224
        ]
      },
      "properties": {
        "id": "ukrainenow|тільки за сьогодні і тільки в києві російські реактивні дрони перемогли два дитячі садочки дві школи житловий будино|тільки за сьогодні і тільки в києві російські реактивні дрони перемогли два дитячі садочки дві школи житловий будинок сто складські приміщення і обєкти звязку  зеленський загалом в",
        "source": "ukrainenow",
        "channel": "UkraineNow",
        "kind": "telegram",
        "title": "Тільки за сьогодні і тільки в Києві російські реактивні дрони «перемогли» два дитячі садочки, дві школи, житловий будино",
        "url": "https://t.me/UkraineNow/84346",
        "published_at": "2026-09-27T17:57:01+00:00",
        "event_type": "drone_attack",
        "confidence": "medium",
        "sector_hints": [],
        "place_candidates": [
          "Telegram",
          "Viber",
          "Тільки",
          "Києві",
          "Зеленський Загалом",
          "Серед",
          "Саудівської Аравії"
        ],
        "matched_place": "Тільки",
        "display_name": "Обережно, колючки шипшини, велосипедом тільки в руках, Клопіт, Мізоцька селищна громада, Рівненський район, Рівненська область, 35740, Україна",
        "tags": [
          "удар",
          "дрон"
        ],
        "text": "Тільки за сьогодні і тільки в Києві російські реактивні дрони «перемогли» два дитячі садочки, дві школи, житловий будинок, СТО, складські приміщення і об’єкти зв’язку, - Зеленський Загалом відучора росіяни застосували 277 ударних дронів різних типів, 155 із них – реактивні. Серед пошкоджених об’єктів також резиденція посла Саудівської Аравії. ✅ Ми у Telegram | Viber"
      }
    },
    {
      "type": "Feature",
      "geometry": {
        "type": "Point",
        "coordinates": [
          23.5039197,
          49.2789224
        ]
      },
      "properties": {
        "id": "ukrainenow|російський дрон влучив у багатоповерхівку в дарницькому районі києва відомо про одну постраждалу  ми у telegram  vibe|російський дрон влучив у багатоповерхівку в дарницькому районі києва відомо про одну постраждалу  ми у telegram  viber",
        "source": "ukrainenow",
        "channel": "UkraineNow",
        "kind": "telegram",
        "title": "російський дрон влучив у багатоповерхівку в Дарницькому районі Києва, відомо про одну постраждалу ✅ Ми у Telegram | Vibe",
        "url": "https://t.me/UkraineNow/84343",
        "published_at": "2026-09-27T14:51:11+00:00",
        "event_type": "drone_attack",
        "confidence": "medium",
        "sector_hints": [],
        "place_candidates": [
          "Telegram",
          "Vibe",
          "Viber",
          "Дарницькому",
          "Києва"
        ],
        "matched_place": "Vibe",
        "display_name": "Vibe - гастробар, 7, вулиця Суховоля, Суховоля, Трускавець, Трускавецька міська громада, Дрогобицький район, Львівська область, 82200, Україна",
        "tags": [
          "дрон"
        ],
        "text": "російський дрон влучив у багатоповерхівку в Дарницькому районі Києва, відомо про одну постраждалу ✅ Ми у Telegram | Viber"
      }
    },
    {
      "type": "Feature",
      "geometry": {
        "type": "Point",
        "coordinates": [
          37.5119518,
          47.0767074
        ]
      },
      "properties": {
        "id": "generalstaffzsu|є важливі результати наших військ на лиманському напрямку на донеччині в рамках операції вівальді та угруповання війсь|є важливі результати наших військ на лиманському напрямку на донеччині в рамках операції вівальді та угруповання військ дшв в рамках ще однієї нашої операції активної оборони трива",
        "source": "generalstaffzsu",
        "channel": "GeneralStaffZSU",
        "kind": "telegram",
        "title": "Є важливі результати наших військ на Лиманському напрямку на Донеччині в рамках операції «Вівальді» та угруповання війсь",
        "url": "https://t.me/GeneralStaffZSU/42389",
        "published_at": "2026-09-27T12:10:19+00:00",
        "event_type": "ground_clash",
        "confidence": "high",
        "sector_hints": [
          "lyman",
          "pokrovsk"
        ],
        "place_candidates": [
          "Лиманському",
          "Донеччині",
          "Вівальді",
          "Триває",
          "Була",
          "Головнокомандувача",
          "Михайла Драпатого",
          "Загалом",
          "Найбільш",
          "Покровському",
          "Костянтинівському",
          "Виконуються",
          "Запоріжжі",
          "Харківщині",
          "Сумщині",
          "Особливо",
          "Олекси Довбуша",
          "Збройних Сил",
          "України",
          "Дякую"
        ],
        "matched_place": "Донеччині",
        "display_name": "Приморський парк, Чорноморський провулок, 417 квартал, Романівка, Маріуполь, Приморський район, Маріупольська міська громада, Маріупольський район, Донецька область, 87517, Україна",
        "tags": [
          "покровськ",
          "фронт"
        ],
        "text": "Є важливі результати наших військ на Лиманському напрямку на Донеччині в рамках операції «Вівальді» та угруповання військ ДШВ в рамках ще однієї нашої операції активної оборони. Триває знищення окупанта, визначені цілі досягаються. Була сьогодні доповідь Головнокомандувача ЗСУ Михайла Драпатого. Загалом за цей тиждень на всіх ділянках активних дій на фронті нашими підрозділами було знешкоджено 10660 російських військових убитими та пораненими. І кожна така російська втрата супроводжується відеопідтвердженням. Найбільш інтенсивні бойові дії відбуваються в районах на Покровському, Костянтинівському та Лиманському напрямках. Виконуються завдання на Запоріжжі, Харківщині та Сумщині. Особливо варто відзначити за підсумками цього тижня воїнів 3-го армійського корпусу і 68-ї окремої аеромобільної бригади імені Олекси Довбуша 8-го корпусу ДШВ Збройних Сил України. Дякую всім за результати, воїни! Кожен такий тиждень на фронті, який стає нашим, українським за характером загальної ситуації, не дозволяє Росії розгорнути більшу наступальну активність проти України. Визначили з Головнокомандувачем і наші подальші активні кроки. Слава Україні!"
      }
    },
    {
      "type": "Feature",
      "geometry": {
        "type": "Point",
        "coordinates": [
          32.6272833,
          46.6420836
        ]
      },
      "properties": {
        "id": "ukrainenow|зсу дронами доставили продукти мешканцям окупованих олешок на херсонщині  за ніч скинуто допомогу одразу у 100 точках м|зсу дронами доставили продукти мешканцям окупованих олешок на херсонщині  за ніч скинуто допомогу одразу у 100 точках міста загалом росіяни тримають у заручниках в олешках близько ",
        "source": "ukrainenow",
        "channel": "UkraineNow",
        "kind": "telegram",
        "title": "ЗСУ дронами доставили продукти мешканцям окупованих Олешок на Херсонщині - за ніч скинуто допомогу одразу у 100 точках м",
        "url": "https://t.me/UkraineNow/84340",
        "published_at": "2026-09-27T11:26:17+00:00",
        "event_type": "drone_attack",
        "confidence": "medium",
        "sector_hints": [
          "kherson"
        ],
        "place_candidates": [
          "Telegram",
          "Viber",
          "Олешок",
          "Херсонщині",
          "Загалом",
          "Олешках"
        ],
        "matched_place": "Херсонщині",
        "display_name": "Першим комсомольцям від молоді херсонщини, вулиця Небесної Сотні, Млини, Центр, Центральний район, Херсон, Херсонська міська громада, Херсонський район, Херсонська область, 73013, Україна",
        "tags": [
          "дрон"
        ],
        "text": "ЗСУ дронами доставили продукти мешканцям окупованих Олешок на Херсонщині - за ніч скинуто допомогу одразу у 100 точках міста Загалом росіяни тримають у заручниках в Олешках близько двох тисяч людей, з них майже 50 дітей. ✅ Ми у Telegram | Viber"
      }
    },
    {
      "type": "Feature",
      "geometry": {
        "type": "Point",
        "coordinates": [
          30.3674671,
          50.3934239
        ]
      },
      "properties": {
        "id": "ukrainenow|у вишневому на київщині дрон впав на проїжджу частину|у вишневому на київщині дрон впав на проїжджу частину одна людина загинула троє постраждали пошкоджені пять авто  внаслідок обстрілів дніпропетровщини загинули жінка й 17річна дівч",
        "source": "ukrainenow",
        "channel": "UkraineNow",
        "kind": "telegram",
        "title": "У Вишневому на Київщині дрон впав на проїжджу частину.",
        "url": "https://t.me/UkraineNow/84337",
        "published_at": "2026-09-27T10:57:27+00:00",
        "event_type": "drone_attack",
        "confidence": "medium",
        "sector_hints": [],
        "place_candidates": [
          "Telegram",
          "Viber",
          "Вишневому",
          "Київщині",
          "Одна",
          "Пошкоджені",
          "Внаслідок",
          "Дніпропетровщини"
        ],
        "matched_place": "Вишневому",
        "display_name": "ЖК «Щасливий у Вишневому», 35-А, Святошинська вулиця, Північна сторона, Вишневе, Вишнева міська громада, Бучанський район, Київська область, 08132, Україна",
        "tags": [
          "обстріл",
          "дрон"
        ],
        "text": "У Вишневому на Київщині дрон впав на проїжджу частину. Одна людина загинула, троє постраждали. Пошкоджені пʼять авто. ▪️ Внаслідок обстрілів Дніпропетровщини загинули жінка й 17-річна дівчина. ✅ Ми у Telegram | Viber"
      }
    },
    {
      "type": "Feature",
      "geometry": {
        "type": "Point",
        "coordinates": [
          30.4531024,
          50.4225279
        ]
      },
      "properties": {
        "id": "ukrainenow|російський дрон влучив у школу в соломянському районі києва як повідомляє дснс тут жертв і постраждалих немає|російський дрон влучив у школу в соломянському районі києва як повідомляє дснс тут жертв і постраждалих немає відомо про 4 постраждалих в шевченківському районі серед них  2 дитини",
        "source": "ukrainenow",
        "channel": "UkraineNow",
        "kind": "telegram",
        "title": "російський дрон влучив у школу в Солом’янському районі Києва Як повідомляє ДСНС, тут жертв і постраждалих немає.",
        "url": "https://t.me/UkraineNow/84333",
        "published_at": "2026-09-27T09:30:48+00:00",
        "event_type": "drone_attack",
        "confidence": "medium",
        "sector_hints": [],
        "place_candidates": [
          "Telegram",
          "Viber",
          "Солом’янському",
          "Києва",
          "Відомо",
          "Шевченківському"
        ],
        "matched_place": "Солом’янському",
        "display_name": "Державна податкова інспекція у Солом'янському райони, Смілянська вулиця, Новокараваєві Дачі, Солом’янський район, Київ, 03151, Україна",
        "tags": [
          "дрон"
        ],
        "text": "російський дрон влучив у школу в Солом’янському районі Києва Як повідомляє ДСНС, тут жертв і постраждалих немає. Відомо про 4 постраждалих в Шевченківському районі, серед них - 2 дитини. ✅ Ми у Telegram | Viber"
      }
    },
    {
      "type": "Feature",
      "geometry": {
        "type": "Point",
        "coordinates": [
          30.4727063,
          50.4550595
        ]
      },
      "properties": {
        "id": "generalstaffzsu|оперативна інформація станом на 0800 27092026 щодо російського вторгнення слава україні|оперативна інформація станом на 0800 27092026 щодо російського вторгнення слава україні розпочалася 1677ма доба широкомасштабної збройної агресії російської федерації проти україни",
        "source": "generalstaffzsu",
        "channel": "GeneralStaffZSU",
        "kind": "telegram",
        "title": "Оперативна інформація станом на 08:00 27.09.2026 щодо російського вторгнення Слава Україні!",
        "url": "https://t.me/GeneralStaffZSU/42387",
        "published_at": "2026-09-27T06:14:53+00:00",
        "event_type": "drone_attack",
        "confidence": "high",
        "sector_hints": [
          "lyman",
          "kostiantynivka",
          "pokrovsk",
          "orikhiv"
        ],
        "place_candidates": [
          "Telegram-",
          "Оперативна",
          "Слава Україні",
          "Розпочалася",
          "України",
          "Загалом",
          "Вчора",
          "Крім",
          "Обстрілів",
          "Безсалівка",
          "Кореньок",
          "Рогізне",
          "Товстодубове",
          "Потапівка",
          "Сопич",
          "Кучерівка",
          "Фотовиж",
          "Яструбщина",
          "Бачівськ",
          "Шпиль"
        ],
        "matched_place": "Оперативна",
        "display_name": "Оперативна поліграфія, вулиця Богдана Гаврилишина, Лукʼянівка, Шевченківський район, Київ, 03055, Україна",
        "tags": [
          "покровськ",
          "оперативна інформація",
          "обстріл",
          "удар",
          "дрон",
          "ракет",
          "авіаудар"
        ],
        "text": "Оперативна інформація станом на 08:00 27.09.2026 щодо російського вторгнення Слава Україні! Розпочалася 1677-ма доба широкомасштабної збройної агресії російської федерації проти України. Загалом протягом минулої доби зафіксовано 221 бойове зіткнення. Вчора противник завдав 90 авіаційних ударів, під час яких скинув 289 керованих авіабомб. Крім того, загарбники застосували 10489 дронів-камікадзе та здійснили 2729 обстрілів населених пунктів і позицій наших військ, 26 - із застосуванням реактивних систем залпового вогню. Обстрілів зі сторони ворога, зокрема, зазнали населені пункти Безсалівка, Кореньок, Рогізне, Товстодубове, Потапівка, Сопич, Кучерівка, Фотовиж, Яструбщина, Бачівськ, Шпиль, Гірки, Гаврилова Слобода, Старикове, Прогрес та Нова Гута Сумської області; Бучки Чернігівської області. Авіаудару зазнав населений пункт Суходіл. За минулу добу авіація, ракетні війська і артилерія Сил оборони уразили чотири пункти управління та керування БпЛА, дві артилерійські системи, чотири важливі та логістичні об’єкти ворога. На Північно-Слобожанському і Курському напрямках минулої доби зафіксовано одну штурмову дію противника. Агресор завдав одного авіаудару застосувавши 2 КАБ та здійснив 51 обстріл позицій наших військ і населених пунктів. На Південно-Слобожанському напрямку українські підрозділи відбили чотири атаки противника. Загарбники намагалися просунутися в бік населених пунктів Тернова, Козача Лопань та Лиман. На Куп’янському напрямку ворог тричі намагався покращити свої позиції проводячи штурмові дії в бік Куп’янська, Радьківки та Куп’янська-Вузлового. Спроби вклинитися в нашу оборону відбито на Лиманському напрямку, де окупанти 12 разів атакували у бік населених пунктів Новоселівка, Дробишеве, Лиман, Діброва, Ставки та Чернещина. На Слов’янському напрямку противник здійснив п’ять штурмових дій у районі Кривої Луки, Рай-Олександрівки та Миколаївки. На Краматорському напрямку противник один раз атакував в бік Костянтинівки. На Костянтинівському напрямку, за уточненою інформацією, зафіксовано 26 атак. Загарбники вели штурмові дії у районах населених пунктів Костянтинівка та у бік Іллінівки, Торського, Русиного Яру, Приюту, Шахового, Вільного, Степів та Кучерового Яру. Двадцять шість атак здійснив ворог на Покровському напрямку. За уточненою інформацією, окупанти намагалися просунутися у бік населених пунктів Дорожнє, Ганнівка, Новий Донбас, Білицьке, Добропілля, Світле, Гуліве, Сергіївка, Молодецьке, Новомиколаївка, Красноподілля та Новопавлівка. На Олександрівському напрямку ворог двічі атакував в бік Воскресенки та Березового. На Гуляйпільському напрямку окупанти шість разів атакували позиції наших захисників. Ворог намагався просунутися у бік населених пунктів Косівцеве, Воздвижівка, Рівне та Гірке. На Оріхівському напрямку ворог один раз намагався покращити свої позиції в бік Малої Токмачки. На Придніпровському напрямку окупанти штурмових дій не проводили. На Волинському та Поліському напрямках ознак формування наступальних угруповань ворога не виявлено. Уточнено: Загалом минулої доби втрати російських загарбників склали 1690 осіб. Також знешкоджено вісім танків, сім бойових броньованих машин, 57 артилерійських систем, три реактивні системи залпового вогню, чотири засоби ППО, 14 наземних робототехнічних комплексів, 1826 безпілотних літальних апаратів, 517 одиниць автомобільної та сім одиниць спеціальної техніки ворога. Приєднуйтеся до Сил оборони! Разом переможемо! Слава Україні! Підписатися на офіційний Telegram-канал Генерального штабу ЗСУ 🇺🇦 Сайт Збройних Сил України"
      }
    },
    {
      "type": "Feature",
      "geometry": {
        "type": "Point",
        "coordinates": [
          22.2642285,
          48.6264594
        ]
      },
      "properties": {
        "id": "generalstaffzsu| збитоподавлено 147 ворожих бпла у ніч на 27 вересня з 1800 26 вересня противник атакував 170 ударними бпла типу s| збитоподавлено 147 ворожих бпла у ніч на 27 вересня з 1800 26 вересня противник атакував 170 ударними бпла типу shahed  76 із них  реактивні гербера дронамиімітаторами типу пароді",
        "source": "generalstaffzsu",
        "channel": "GeneralStaffZSU",
        "kind": "telegram",
        "title": "⚡️ ЗБИТО/ПОДАВЛЕНО 147 ВОРОЖИХ БПЛА У ніч на 27 вересня (з 18:00 26 вересня) противник атакував 170 ударними БпЛА типу S",
        "url": "https://t.me/GeneralStaffZSU/42385",
        "published_at": "2026-09-27T04:55:01+00:00",
        "event_type": "drone_attack",
        "confidence": "high",
        "sector_hints": [],
        "place_candidates": [
          "Shahed",
          "Telegram-",
          "Гербера",
          "Пародія",
          "Орел",
          "Курськ",
          "Приморсько-",
          "Ахтарськ",
          "Шаталово",
          "Донецьк",
          "Крим",
          "Гвардійське",
          "Повітряний",
          "Сил",
          "України",
          "Зафіксовано",
          "Атака",
          "Дотримуйтесь",
          "Підписатися",
          "Генерального"
        ],
        "matched_place": "Гербера",
        "display_name": "Гербера, Загорська вулиця, Садовий, Компотний, Ужгород, Ужгородська міська громада, Ужгородський район, 88017, Україна",
        "tags": [
          "удар",
          "дрон",
          "ракет"
        ],
        "text": "⚡️ ЗБИТО/ПОДАВЛЕНО 147 ВОРОЖИХ БПЛА У ніч на 27 вересня (з 18:00 26 вересня) противник атакував 170 ударними БпЛА типу Shahed ( 76 із них - реактивні), Гербера, дронами-імітаторами типу “Пародія” із напрямків: Орел, Курськ, Приморсько-Ахтарськ, Шаталово - рф; ТОТ Донецьк та ТОТ АР Крим – Гвардійське. Повітряний напад відбивали авіація, зенітні ракетні війська, підрозділи РЕБ та безпілотних систем, мобільні вогневі групи Сил оборони України. 💥 За попередніми даними, станом на 07:30, протиповітряною обороною збито/подавлено 147 ворожих БпЛА типу Shahed, Гербера та дронів інших типів. Зафіксовано влучання засобів повітряного нападу противника на 18 локаціях а також падіння збитих (уламки) на 8 локаціях. Атака триває, в повітряному просторі декілька ворожих БпЛА. Дотримуйтесь правил безпеки! Підписатися на офіційний Telegram-канал Генерального штабу ЗСУ 🇺🇦 Сайт Збройних Сил України"
      }
    },
    {
      "type": "Feature",
      "geometry": {
        "type": "Point",
        "coordinates": [
          30.4727063,
          50.4550595
        ]
      },
      "properties": {
        "id": "generalstaffzsu|оперативна інформація станом на 2200 26092026 щодо російського вторгнення загалом від початку цієї доби відбулося 175|оперативна інформація станом на 2200 26092026 щодо російського вторгнення загалом від початку цієї доби відбулося 175 бойових зіткнень агресор здійснив 57 авіаційних ударів із заст",
        "source": "generalstaffzsu",
        "channel": "GeneralStaffZSU",
        "kind": "telegram",
        "title": "Оперативна інформація станом на 22:00 26.09.2026 щодо російського вторгнення Загалом від початку цієї доби відбулося 175",
        "url": "https://t.me/GeneralStaffZSU/42383",
        "published_at": "2026-09-26T19:01:42+00:00",
        "event_type": "drone_attack",
        "confidence": "high",
        "sector_hints": [
          "lyman",
          "toretsk",
          "kostiantynivka",
          "pokrovsk",
          "orikhiv"
        ],
        "place_candidates": [
          "Telegram-",
          "Оперативна",
          "Загалом",
          "Агресор",
          "Північно-",
          "Слобожанському",
          "Курському",
          "Окупанти",
          "Південно-",
          "Тернова",
          "Козача Лопань",
          "Куп’янському",
          "Радьківки",
          "Куп’янська-",
          "Вузлового",
          "Одна",
          "Шість",
          "Лиманському",
          "Новоселівка",
          "Дробишеве"
        ],
        "matched_place": "Оперативна",
        "display_name": "Оперативна поліграфія, вулиця Богдана Гаврилишина, Лукʼянівка, Шевченківський район, Київ, 03055, Україна",
        "tags": [
          "покровськ",
          "оперативна інформація",
          "обстріл",
          "удар",
          "дрон"
        ],
        "text": "Оперативна інформація станом на 22:00 26.09.2026 щодо російського вторгнення Загалом від початку цієї доби відбулося 175 бойових зіткнень. Агресор здійснив 57 авіаційних ударів із застосуванням 186 керованих авіабомб, залучив для ударів 6681 дрон-камікадзе та здійснив 2013 обстрілів позицій наших військ і населених пунктів. На Північно-Слобожанському та Курському напрямках від початку доби зафіксовано одну штурмову дію противника. Окупанти завдали одного авіаційного удару із застосуванням 2 КАБ та здійснили 30 обстрілів позицій наших військ і населених пунктів. На Південно-Слобожанському напрямку противник двічі атакував позиції наших підрозділів в бік населених пунктів Тернова та Козача Лопань. На Куп’янському напрямку ворог два рази намагався покращити свої позиції проводячи штурмові дії в бік Радьківки та Куп’янська-Вузлового. Одна штурмова дія ще триває. Шість спроб загарбників просунутися відбивали на Лиманському напрямку у районах населених пунктів Новоселівка, Дробишеве, Лиман та Діброва. Дві з цих атак ще тривають. На Слов’янському напрямку Сили оборони тричі зупиняли спроби загарбників йти вперед у районі населених пунктів Крива Лука, Рай-Олександрівка та Миколаївка. Одна штурмова дія противника продовжується. На Краматорському напрямку противник штурмових дій не проводив. На Костянтинівському напрямку Сили оборони відбивали 22 ворожі штурми: у районі населеного пункту Костянтинівка та у бік Іллінівки, Торецького, Русиного Яру, Приюту, Шахового, Вільного, Степів та Кучерового Яру. Одна атака окупантів продовжується. Двадцять шість атак здійснив ворог на Покровському напрямку. Окупанти намагалися просунутися у бік населених пунктів Дорожнє, Ганнівка, Новий Донбас, Білицьке, Добропілля, Світле, Гуліве, Сергіївка, Молодецьке, Новомиколаївка та Новопавлівка. Два бої тривають. За попередніми підрахунками, сьогодні тут ліквідовано 44 окупанти, 17 - поранено; знищено танк, три одиниці автомобільної техніки, гармату, шість спеціальних засобів, 45 укриттів, пункт управління БпЛА та 44 укриття противника. Пошкоджено п’ять одиниць автомобільної техніки, шість артилерійських систем, 11 пунктів управління БпЛА та 212 укриття особового складу. Знищено або подавлено 332 безпілотні літальні апарати різних типів. На Олександрівському напрямку ворог атакував в бік Воскресенки та Березового. На Гуляйпільському напрямку Сили оборони відбили п’ять ворожих атак неподалік населених пунктів Косівцеве, Воздвижівка, Рівне та Гірке. На Оріхівському та Придніпровському напрямках окупанти штурмових дій не проводили. На інших напрямках суттєвих змін в обстановці не відбулося. Биймо ворога та наближаймо нашу Перемогу! Слава Україні! Підписатися на офіційний Telegram-канал Генерального штабу ЗСУ 🇺🇦 Сайт Збройних Сил України"
      }
    },
    {
      "type": "Feature",
      "geometry": {
        "type": "Point",
        "coordinates": [
          36.2114383,
          50.0290952
        ]
      },
      "properties": {
        "id": "generalstaffzsu|  уражено азовський оптикомеханічний завод у ніч на 26 вересня 2026 року підрозділи сил оборони україни в азові рос|  уражено азовський оптикомеханічний завод у ніч на 26 вересня 2026 року підрозділи сил оборони україни в азові ростовської області рф уразили потужності азовського оптикомеханічно",
        "source": "generalstaffzsu",
        "channel": "GeneralStaffZSU",
        "kind": "telegram",
        "title": "⚡️ ⚡️ Уражено Азовський оптико-механічний завод У ніч на 26 вересня 2026 року підрозділи Сил оборони України в Азові Рос",
        "url": "https://t.me/GeneralStaffZSU/42378",
        "published_at": "2026-09-26T10:33:01+00:00",
        "event_type": "missile_strike",
        "confidence": "high",
        "sector_hints": [],
        "place_candidates": [
          "Telegram-",
          "Уражено Азовський",
          "Сил",
          "України",
          "Азові Рос",
          "Азові Ростовської",
          "Азовського",
          "Зафіксовано",
          "Довідково",
          "Підприємство",
          "Тактичне",
          "Ураження",
          "Україною",
          "Статуту",
          "Далі",
          "Слава Україні",
          "Підписатися",
          "Генерального",
          "Сайт Збройних",
          "Сил України"
        ],
        "matched_place": "Сил",
        "display_name": "Харківський національний університет Повітряних сил імені Івана Кожедуба, Павлове Поле, Шевченківський район, Харків, Харківська міська громада, Харківський район, Харківська область, Україна",
        "tags": [
          "ракет"
        ],
        "text": "⚡️ ⚡️ Уражено Азовський оптико-механічний завод У ніч на 26 вересня 2026 року підрозділи Сил оборони України в Азові Ростовської області рф уразили потужності Азовського оптико-механічного заводу. Зафіксовано пожежу на території ливарного цеху та пошкодження обладнання в п'яти виробничих будівлях. ℹ️ Довідково. Підприємство входить до складу корпорації «Тактичне ракетне озброєння» та спеціалізується на виробництві оптико-механічних і оптико-електронних виробів, електронних систем для комплектації артилерійського, ракетного та протитанкового озброєння, а також радіолокаційних головок самонаведення для тактичних керованих ракет. Підприємство задіяне у виробництві продукції для потреб збройних сил рф. Ураження таких об’єктів є реалізацією Україною свого невід’ємного права на самооборону відповідно до статті 51 Статуту ООН та спрямоване на зниження військово-економічного потенціалу російської федерації. Далі буде! 💥 Слава Україні! 🇺🇦 Підписатися на офіційний Telegram-канал Генерального штабу ЗСУ 🇺🇦 Сайт Збройних Сил України"
      }
    },
    {
      "type": "Feature",
      "geometry": {
        "type": "Point",
        "coordinates": [
          22.2642285,
          48.6264594
        ]
      },
      "properties": {
        "id": "generalstaffzsu| збитоподавлено 134 ворожі бпла у ніч на 26 вересня з 1800 25 вересня противник атакував 173 ударними бпла типу sh| збитоподавлено 134 ворожі бпла у ніч на 26 вересня з 1800 25 вересня противник атакував 173 ударними бпла типу shahed понад 50 із них  реактивні гербера дронамиімітаторами типу па",
        "source": "generalstaffzsu",
        "channel": "GeneralStaffZSU",
        "kind": "telegram",
        "title": "⚡️ ЗБИТО/ПОДАВЛЕНО 134 ВОРОЖІ БПЛА У ніч на 26 вересня (з 18:00 25 вересня) противник атакував 173 ударними БпЛА типу Sh",
        "url": "https://t.me/GeneralStaffZSU/42374",
        "published_at": "2026-09-26T05:20:01+00:00",
        "event_type": "drone_attack",
        "confidence": "high",
        "sector_hints": [],
        "place_candidates": [
          "Shahed",
          "Telegram-",
          "Гербера",
          "Пародія",
          "Орел",
          "Курськ",
          "Міллерово",
          "Приморсько-",
          "Ахтарськ",
          "Шаталово",
          "Донецьк",
          "Крим",
          "Гвардійське",
          "Повітряний",
          "Сил",
          "України",
          "Зафіксовано",
          "Атака",
          "Дотримуйтесь",
          "Підписатися"
        ],
        "matched_place": "Гербера",
        "display_name": "Гербера, Загорська вулиця, Садовий, Компотний, Ужгород, Ужгородська міська громада, Ужгородський район, 88017, Україна",
        "tags": [
          "удар",
          "дрон",
          "ракет"
        ],
        "text": "⚡️ ЗБИТО/ПОДАВЛЕНО 134 ВОРОЖІ БПЛА У ніч на 26 вересня (з 18:00 25 вересня) противник атакував 173 ударними БпЛА типу Shahed (понад 50 із них - реактивні), Гербера, дронами-імітаторами типу “Пародія” із напрямків: Орел, Курськ, Міллерово, Приморсько-Ахтарськ, Шаталово - рф; ТОТ Донецьк та ТОТ АР Крим – Гвардійське. Повітряний напад відбивали авіація, зенітні ракетні війська, підрозділи РЕБ та безпілотних систем, мобільні вогневі групи Сил оборони України. 💥 За попередніми даними, станом на 07:30, протиповітряною обороною збито/подавлено 134 ворожі БпЛА типу Shahed, Гербера та дронів інших типів. Зафіксовано влучання засобів повітряного нападу противника на 19 локаціях а також падіння збитих (уламки) на 8 локаціях. Атака триває, в повітряному просторі декілька ворожих БпЛА. Дотримуйтесь правил безпеки! Підписатися на офіційний Telegram-канал Генерального штабу ЗСУ 🇺🇦 Сайт Збройних Сил України"
      }
    },
    {
      "type": "Feature",
      "geometry": {
        "type": "Point",
        "coordinates": [
          30.4727063,
          50.4550595
        ]
      },
      "properties": {
        "id": "generalstaffzsu|оперативна інформація станом на 0800 26092026 щодо російського вторгнення слава україні|оперативна інформація станом на 0800 26092026 щодо російського вторгнення слава україні розпочалася 1676та доба широкомасштабної збройної агресії російської федерації проти україни",
        "source": "generalstaffzsu",
        "channel": "GeneralStaffZSU",
        "kind": "telegram",
        "title": "Оперативна інформація станом на 08:00 26.09.2026 щодо російського вторгнення Слава Україні!",
        "url": "https://t.me/GeneralStaffZSU/42373",
        "published_at": "2026-09-26T05:02:05+00:00",
        "event_type": "drone_attack",
        "confidence": "high",
        "sector_hints": [
          "lyman",
          "pokrovsk",
          "orikhiv"
        ],
        "place_candidates": [
          "Оперативна",
          "Слава Україні",
          "Розпочалася",
          "України",
          "Загалом",
          "Учора",
          "Крім",
          "Сумщині",
          "Гаврилова-",
          "Слобода",
          "Середина-",
          "Буда",
          "Товстодубове",
          "Уланове",
          "Фотовиж",
          "Яструбщина",
          "Гирине",
          "Сопич",
          "Бачівськ",
          "Потапівка"
        ],
        "matched_place": "Оперативна",
        "display_name": "Оперативна поліграфія, вулиця Богдана Гаврилишина, Лукʼянівка, Шевченківський район, Київ, 03055, Україна",
        "tags": [
          "покровськ",
          "оперативна інформація",
          "обстріл",
          "удар",
          "дрон",
          "ракет"
        ],
        "text": "Оперативна інформація станом на 08:00 26.09.2026 щодо російського вторгнення Слава Україні! Розпочалася 1676-та доба широкомасштабної збройної агресії російської федерації проти України. Загалом протягом минулої доби зафіксовано 205 бойових зіткнень. Учора противник завдав 79 авіаційних ударів, під час яких скинув 277 керованих авіабомб. Крім того, загарбники застосували 9223 дронів-камікадзе та здійснили 2636 обстрілів населених пунктів і позицій наших військ, 44 - із застосуванням реактивних систем залпового вогню. На Сумщині артилерійських обстрілів ворога зазнали населені пункти Гаврилова-Слобода, Середина-Буда, Товстодубове, Уланове, Фотовиж, Яструбщина, Гирине, Сопич, Бачівськ, Потапівка, Кореньок, Рівне, Безсалівка, Нескучне, Волфине, Павлівка, Кіндратівка, Рогізне, Писарівка, Мала Корчаківка, Олексіївка, Храпівщина, Могриця, Миропілля; Михальчина Слобода Чернігівської області. Крім того, авіаційних ударів зазнали райони населених пунктів Кореньок, Вакалівщина та Суми. За минулу добу авіація, ракетні війська і артилерія Сил оборони уразили три пункти управління та запуску БпЛА, шість артилерійських систем та склад боєприпасів противника. На Північно-Слобожанському і Курському напрямках минулої доби наші захисники зупинили сім ворожих штурмів. Окупанти завдали чотирьох авіаційних ударів із застосуванням 11 КАБ та здійснили 128 обстрілів позицій наших військ і населених пунктів. На Південно-Слобожанському напрямку українські підрозділи відбили 11 атак противника. Загарбники намагалися просунутися біля населених пунктів Лиман, Синельникове, Вільча, Чайківка та в бік Кудіївки, Ізбицького, Захарівки, Малого Бурлука, Путникового. На Куп’янському напрямку ворог один раз атакував в районі Ківшарівки. Спроби вклинитися в нашу оборону відбито на Лиманському напрямку, де окупанти три рази атакували в районах населених пунктів Копанки та Новоселівка. На Слов’янському напрямку противник здійснив п’ять штурмових дій, поблизу населеного пункту Крива Лука та в бік Стародубівки, Миколаївки, Оріхуватки. На Краматорському напрямку минулої доби ворог штурмових дій не проводив. На Костянтинівському напрямку зафіксовано 21 атаку. Загарбники вели штурмові дії у районах Костянтинівки, Степанівки, Новоселівки, Русиного Яру та Вільного. На Покровському напрямку наші захисники зупинили 21 атаку. Ворог виявляв активність в районах населених пунктів Дорожнє, Світле, Водянське, Красноподілля, Молодецьке та в напрямках Ганнівки, Нового Донбасу, Добропілля, Сергіївки, Новопавлівки. На Олександрівському напрямку наші захисники зупинили дві спроби противника просунутися вперед в бік Запорізького. На Гуляйпільському напрямку окупанти атакували сім разів. Ворог намагався просунутися в бік населених пунктів Різдвянка, Воздвижівка, Копані. На Оріхівському напрямку наші захисники зупинили дві спроби противника просунутися вперед в бік населеного пункту Павлівка. На Придніпровському напрямку ворог штурмових дій не проводив. На Волинському та Поліському напрямках ознак формування наступальних угруповань противника не виявлено. Загалом минулої доби втрати російських загарбників склали 1710 осіб. Також знешкоджено сім танків, 20 бойових броньованих машин, 96 артилерійських систем, три реактивні системи залпового вогню, чотири засоби протиповітряної оборони, 12 наземних робототехнічних комплексів, 1445 безпілотних літальних апаратів, 576 одиниць автомобільної та вісім одиниць спеціальної техніки ворога. Приєднуйтеся до Сил оборони! Разом переможемо! Слава Україні!"
      }
    },
    {
      "type": "Feature",
      "geometry": {
        "type": "Point",
        "coordinates": [
          30.4727063,
          50.4550595
        ]
      },
      "properties": {
        "id": "generalstaffzsu|оперативна інформація станом на 2200 25092026 щодо російського вторгнення|оперативна інформація станом на 2200 25092026 щодо російського вторгнення загалом від початку цієї доби відбулося 167 бойових зіткнень противник здійснив 56 авіаційних ударів скину",
        "source": "generalstaffzsu",
        "channel": "GeneralStaffZSU",
        "kind": "telegram",
        "title": "Оперативна інформація станом на 22:00 25.09.2026 щодо російського вторгнення.",
        "url": "https://t.me/GeneralStaffZSU/42371",
        "published_at": "2026-09-25T19:01:09+00:00",
        "event_type": "drone_attack",
        "confidence": "high",
        "sector_hints": [
          "lyman",
          "pokrovsk",
          "orikhiv"
        ],
        "place_candidates": [
          "Telegram-",
          "Оперативна",
          "Загалом",
          "Противник",
          "Крім",
          "Північно-",
          "Слобожанському",
          "Курському",
          "Сили",
          "Окупанти",
          "Упродовж",
          "Південно-",
          "Лиману",
          "Синельникового",
          "Чайківки",
          "Кудіївки",
          "Ізбицького",
          "Захарівки",
          "Малого Бурлука",
          "Путникового"
        ],
        "matched_place": "Оперативна",
        "display_name": "Оперативна поліграфія, вулиця Богдана Гаврилишина, Лукʼянівка, Шевченківський район, Київ, 03055, Україна",
        "tags": [
          "покровськ",
          "оперативна інформація",
          "боєзіткнення",
          "обстріл",
          "удар",
          "дрон"
        ],
        "text": "Оперативна інформація станом на 22:00 25.09.2026 щодо російського вторгнення. Загалом від початку цієї доби відбулося 167 бойових зіткнень. Противник здійснив 56 авіаційних ударів, скинув 190 керованих авіабомб. Крім того, залучив для ураження 4346 дронів-камікадзе та здійснив 1816 обстрілів населених пунктів і позицій наших військ. На Північно-Слобожанському та Курському напрямках Сили оборони відбили шість атак противника; одне боєзіткнення триває дотепер. Окупанти завдали трьох авіаційних ударів із застосуванням восьми КАБ та здійснили 77 обстрілів позицій наших військ і населених пунктів. Упродовж доби на Південно-Слобожанському напрямку противник 10 разів атакував позиції наших підрозділів біля Лиману, Синельникового, Чайківки та в бік Кудіївки, Ізбицького, Захарівки, Малого Бурлука, Путникового. З початку доби на Куп’янському напрямку Сили оборони відбили атаку противника в районі Ківшарівки. На Лиманському напрямку наші оборонці успішно відбили три спроби загарбників просунутися в районах населених пунктів Копанки та Новоселівка. На Слов’янському напрямку Сили оборони зупинили два ворожі штурми поблизу населеного пункту Крива Лука та в напрямку Миколаївки. На Костянтинівському напрямку Сили оборони відбили 18 ворожих штурмів у районах Костянтинівки, Степанівки, Новоселівки, Русиного Яру та Вільного; ще два боєзіткнення тривають. Усього 12 атак відбито на Покровському напрямку. Окупанти намагалися просунутися в районах населених пунктів Дорожнє, Світле, Добропілля, Красноподілля, Сергіївка та Молодецьке. Дві атаки тривають. За попередніми підрахунками, сьогодні тут ліквідовано 36 окупантів та п’ять — поранено; знищено дві одиниці автомобільної, дві артилерійські системи, 11 одиниць спеціальної техніки, два пункти управління безпілотними літальними апаратами та одне укриття ворога. Пошкоджено чотири одиниці автомобільної техніки, дві одиниці спеціальної техніки, чотири пункти управління безпілотними літальними апаратами та 58 укриттів противника. Знищено або подавлено 172 безпілотних літальних апаратів різних типів. На Олександрівському напрямку наші захисники зупинили одну спробу противника просунутися вперед в бік Запорізького. Три атаки окупантів зафіксовано на Гуляйпільському напрямку, в бік населених пунктів Різдвянка, Воздвижівка, Копані; два з них ще тривають. На Оріхівському напрямку наші захисники зупинили одну спробу противника просунутися вперед в бік населеного пункту Павлівка. На Краматорському та Придніпровському напрямках ворог наступальних дій не проводив. На інших напрямках суттєвих змін в обстановці не відбулося. Биймо ворога та наближаймо нашу Перемогу! Слава Україні! Підписатися на офіційний Telegram-канал Генерального штабу ЗСУ 🇺🇦 Сайт Збройних Сил України"
      }
    }
  ]
}